{"type":"FeatureCollection","features":[{"type":"Feature","properties":{"ADMIN":"Chile"},"geometry":{"type":"MultiPolygon","coordinates":[[[[-109.28,-27.14],[-109.43,-27.17],[-109.39,-27.07],[-109.22,-27.1],[-109.28,-27.14]]],[[[-78.8,-33.65],[-78.99,-33.66],[-78.88,-33.58],[-78.8,-33.65]]],[[[-70.42,-18.35],[-69.93,-18.21],[-69.8,-17.99],[-69.85,-17.7],[-69.51,-17.51],[-69.31,-17.94],[-69.09,-18.05],[-69.15,-18.14],[-68.97,-18.97],[-68.46,-19.43],[-68.7,-19.72],[-68.56,-19.97],[-68.76,-20.09],[-68.69,-20.31],[-68.76,-20.42],[-68.48,-20.63],[-68.56,-20.72],[-68.56,-20.9],[-68.44,-20.95],[-68.2,-21.3],[-68.19,-21.62],[-67.88,-22.49],[-67.88,-22.82],[-67.58,-22.89],[-67.19,-22.82],[-67.01,-23],[-67.36,-24.03],[-68.25,-24.39],[-68.56,-24.75],[-68.38,-25.09],[-68.5,-25.16],[-68.59,-25.42],[-68.41,-26.15],[-68.59,-26.47],[-68.32,-26.97],[-68.59,-27.14],[-68.85,-27.15],[-69.17,-27.92],[-69.66,-28.41],[-69.83,-29.1],[-70.03,-29.32],[-69.93,-29.77],[-69.96,-30.08],[-69.84,-30.18],[-69.96,-30.36],[-70.15,-30.36],[-70.35,-30.9],[-70.31,-31.02],[-70.52,-31.15],[-70.59,-31.57],[-70.45,-31.84],[-70.25,-31.96],[-70.36,-32.08],[-70.17,-32.47],[-70.12,-32.81],[-70.02,-32.88],[-70.08,-33.2],[-69.82,-33.28],[-69.89,-33.73],[-69.85,-34.22],[-70.05,-34.3],[-70.29,-34.73],[-70.39,-35.15],[-70.56,-35.25],[-70.42,-35.52],[-70.4,-36.06],[-70.72,-36.28],[-70.75,-36.39],[-71.06,-36.52],[-71.19,-36.84],[-71.12,-37.11],[-71.2,-37.3],[-71.13,-37.45],[-71.17,-37.76],[-71.03,-38.04],[-70.97,-38.45],[-70.85,-38.54],[-70.95,-38.74],[-71.4,-38.94],[-71.42,-39.29],[-71.54,-39.6],[-71.72,-39.64],[-71.66,-40.02],[-71.82,-40.18],[-71.7,-40.34],[-71.94,-40.79],[-71.87,-40.89],[-71.91,-41.65],[-71.75,-42.05],[-72.11,-42.25],[-72.05,-42.47],[-72.14,-42.58],[-72.1,-43.07],[-71.75,-43.24],[-71.9,-43.35],[-71.75,-43.59],[-71.79,-43.75],[-71.68,-43.93],[-71.81,-44.11],[-71.82,-44.38],[-71.21,-44.44],[-71.16,-44.56],[-71.26,-44.76],[-72.06,-44.77],[-72.04,-44.9],[-71.6,-44.98],[-71.35,-45.23],[-71.35,-45.33],[-71.51,-45.51],[-71.75,-45.58],[-71.75,-45.84],[-71.63,-45.95],[-71.88,-46.16],[-71.76,-46.32],[-71.7,-46.65],[-71.94,-46.83],[-71.9,-47.2],[-72.35,-47.49],[-72.52,-47.88],[-72.29,-48.23],[-72.35,-48.37],[-72.61,-48.52],[-72.61,-48.79],[-73.03,-49.01],[-73.15,-49.19],[-73.14,-49.3],[-73.46,-49.31],[-73.58,-49.58],[-73.47,-49.79],[-73.5,-50.13],[-73.15,-50.74],[-72.51,-50.61],[-72.34,-50.68],[-72.28,-50.91],[-72.38,-51.1],[-72.3,-51.3],[-72.41,-51.54],[-71.95,-51.88],[-71.97,-51.96],[-69.96,-52.01],[-68.46,-52.29],[-68.44,-52.36],[-69.24,-52.21],[-69.45,-52.27],[-69.62,-52.46],[-70.8,-52.77],[-70.98,-53.37],[-71,-53.78],[-71.3,-53.88],[-72.17,-53.63],[-72.38,-53.47],[-72.41,-53.35],[-72.31,-53.25],[-71.94,-53.23],[-71.83,-53.4],[-71.89,-53.52],[-71.79,-53.48],[-71.74,-53.23],[-71.29,-53.03],[-71.16,-52.89],[-71.23,-52.81],[-71.39,-52.76],[-72.28,-53.13],[-72.49,-53.29],[-72.55,-53.46],[-73.05,-53.24],[-72.92,-53.12],[-72.89,-52.87],[-72.73,-52.76],[-72.45,-52.81],[-72.12,-52.65],[-71.8,-52.68],[-71.51,-52.61],[-72.23,-52.52],[-72.44,-52.63],[-72.71,-52.54],[-73.12,-53.07],[-73.34,-53.05],[-73.65,-52.84],[-73.24,-52.71],[-73.07,-52.54],[-73.12,-52.49],[-73.24,-52.62],[-73.38,-52.6],[-73.59,-52.69],[-74.01,-52.64],[-74.04,-52.4],[-74.15,-52.38],[-74.3,-52.12],[-73.83,-52.23],[-73.7,-52.2],[-73.68,-52.08],[-73.26,-52.16],[-72.8,-51.95],[-72.7,-51.99],[-72.57,-52.2],[-72.71,-52.36],[-72.63,-52.37],[-72.52,-52.26],[-72.62,-52.01],[-72.49,-51.85],[-72.54,-51.71],[-73.17,-51.45],[-72.65,-51.7],[-72.6,-51.8],[-73.38,-52.07],[-73.52,-52.04],[-73.75,-51.8],[-74.2,-51.68],[-74.07,-51.58],[-73.93,-51.62],[-73.94,-51.27],[-74.81,-51.06],[-75.09,-50.68],[-74.69,-50.66],[-74.65,-50.62],[-74.78,-50.47],[-74.64,-50.36],[-74.37,-50.49],[-74.14,-50.82],[-73.81,-50.94],[-73.74,-50.7],[-73.62,-50.65],[-73.69,-50.57],[-73.65,-50.49],[-73.98,-50.83],[-74.2,-50.61],[-74.19,-50.49],[-73.95,-50.51],[-74.43,-50.35],[-74.63,-50.19],[-74.33,-49.97],[-73.96,-49.99],[-74.32,-49.78],[-74.29,-49.6],[-74.1,-49.56],[-73.84,-49.61],[-74.09,-49.43],[-73.93,-49.02],[-74.03,-49.03],[-74.22,-49.5],[-74.37,-49.4],[-74.34,-48.6],[-74.01,-48.48],[-74.47,-48.46],[-74.58,-48.27],[-74.58,-48],[-73.85,-48.04],[-73.53,-48.2],[-73.39,-48.15],[-73.61,-47.99],[-73.72,-47.66],[-73.94,-47.93],[-74.23,-47.97],[-74.65,-47.7],[-74.53,-47.57],[-74.24,-47.68],[-74.13,-47.59],[-74.48,-47.43],[-74.16,-47.18],[-74.21,-47.08],[-74.15,-46.97],[-74.31,-46.79],[-74.45,-46.77],[-74.51,-46.89],[-75.01,-46.74],[-75.05,-46.63],[-74.98,-46.51],[-75.54,-46.7],[-75.39,-46.86],[-75.43,-46.93],[-75.64,-46.86],[-75.71,-46.71],[-74.92,-46.16],[-75.07,-46],[-75.07,-45.87],[-74.16,-45.77],[-74.08,-45.68],[-74.12,-45.5],[-73.96,-45.4],[-73.83,-45.45],[-74.06,-45.95],[-74.02,-46.06],[-74.39,-46.22],[-73.97,-46.15],[-73.88,-45.85],[-73.74,-45.81],[-73.71,-46.07],[-73.81,-46.38],[-73.95,-46.53],[-73.85,-46.57],[-73.66,-46.3],[-73.59,-45.9],[-73.59,-45.78],[-73.76,-45.7],[-73.73,-45.48],[-73.55,-45.48],[-73.27,-45.35],[-72.93,-45.45],[-73.23,-45.26],[-73.44,-45.24],[-73.4,-45.1],[-73.36,-44.98],[-72.74,-44.73],[-72.68,-44.59],[-72.66,-44.44],[-73.27,-44.17],[-73.22,-43.9],[-73.07,-43.86],[-73,-43.63],[-73.1,-43.46],[-73.08,-43.32],[-72.88,-43.05],[-72.76,-43.04],[-72.85,-42.67],[-72.77,-42.51],[-72.63,-42.51],[-72.77,-42.26],[-72.63,-42.2],[-72.41,-42.39],[-72.5,-41.98],[-72.74,-41.99],[-72.82,-41.91],[-72.66,-41.74],[-72.36,-41.65],[-72.32,-41.5],[-72.54,-41.69],[-72.95,-41.51],[-73.24,-41.78],[-73.74,-41.74],[-73.62,-41.58],[-73.86,-41.45],[-73.98,-40.97],[-73.67,-39.96],[-73.41,-39.79],[-73.23,-39.22],[-73.52,-38.51],[-73.46,-38.04],[-73.66,-37.7],[-73.6,-37.48],[-73.66,-37.34],[-73.6,-37.19],[-73.22,-37.17],[-73.12,-36.69],[-73.01,-36.64],[-72.78,-35.98],[-72.59,-35.76],[-72.62,-35.59],[-72.22,-35.1],[-72.06,-34.62],[-72,-34.17],[-71.66,-33.65],[-71.74,-33.1],[-71.59,-32.97],[-71.45,-32.66],[-71.42,-32.39],[-71.51,-32.21],[-71.71,-30.63],[-71.67,-30.33],[-71.4,-30.14],[-71.32,-29.65],[-71.52,-28.93],[-71.19,-28.38],[-71.09,-27.81],[-70.93,-27.59],[-70.9,-27.19],[-70.65,-26.33],[-70.64,-25.99],[-70.71,-25.78],[-70.45,-25.25],[-70.57,-24.64],[-70.51,-23.89],[-70.39,-23.57],[-70.59,-23.37],[-70.59,-23.26],[-70.56,-23.06],[-70.45,-23.03],[-70.33,-22.85],[-70.09,-21.49],[-70.2,-20.73],[-70.16,-19.71],[-70.42,-18.35]]],[[[-68.63,-52.65],[-68.65,-54.85],[-69.08,-54.91],[-69.49,-54.86],[-69.72,-54.71],[-70.03,-54.82],[-70.28,-54.75],[-70.5,-54.81],[-71.9,-54.6],[-71.93,-54.53],[-71.8,-54.43],[-71.61,-54.5],[-71.36,-54.4],[-71.08,-54.44],[-70.8,-54.33],[-70.7,-54.35],[-70.7,-54.49],[-70.31,-54.53],[-70.86,-54.11],[-70.87,-53.88],[-70.64,-53.82],[-70.7,-53.73],[-70.53,-53.63],[-70.38,-53.99],[-70.63,-54.01],[-70.54,-54.14],[-70.17,-54.38],[-69.74,-54.31],[-69.42,-54.41],[-69.25,-54.56],[-69.04,-54.41],[-69.99,-54.11],[-70.15,-53.89],[-70.09,-53.72],[-69.39,-53.5],[-69.36,-53.42],[-69.64,-53.33],[-70.09,-53.42],[-70.33,-53.38],[-70.46,-53.21],[-70.44,-53.09],[-70.13,-52.94],[-70.38,-52.75],[-70.19,-52.72],[-69.94,-52.82],[-69.41,-52.49],[-69.17,-52.67],[-68.79,-52.58],[-68.63,-52.65]]],[[[-67.08,-55.15],[-67.34,-55.29],[-67.49,-55.18],[-67.77,-55.26],[-68.07,-55.22],[-68.3,-54.98],[-68.11,-54.93],[-67.25,-54.98],[-67.08,-55.15]]],[[[-73.77,-43.35],[-74.11,-43.36],[-74.39,-43.23],[-74.21,-42.88],[-74.17,-42.27],[-74.07,-42.11],[-74.04,-41.8],[-73.53,-41.9],[-73.42,-42.19],[-73.53,-42.31],[-73.47,-42.47],[-73.79,-42.59],[-73.44,-42.94],[-73.54,-43.07],[-73.75,-43.16],[-73.77,-43.35]]],[[[-74.48,-49.15],[-74.52,-49.62],[-74.46,-49.69],[-74.59,-50.01],[-74.76,-50.01],[-74.88,-49.73],[-74.72,-49.42],[-74.96,-49.53],[-75.07,-49.85],[-75.55,-49.79],[-75.52,-49.62],[-75.34,-49.63],[-75.31,-49.49],[-75.47,-49.36],[-75.33,-49.27],[-75.09,-49.27],[-75.09,-49.19],[-75.21,-49.15],[-74.95,-48.96],[-74.98,-48.82],[-74.9,-48.73],[-74.55,-48.77],[-74.48,-49.15]]],[[[-75.51,-48.76],[-75.62,-48.76],[-75.65,-48.59],[-75.52,-48.33],[-75.56,-48.07],[-75.39,-48.02],[-75.16,-48.43],[-75.16,-48.62],[-75.51,-48.76]]],[[[-74.39,-52.92],[-73.65,-53.07],[-73.14,-53.35],[-73.57,-53.31],[-73.87,-53.1],[-74.27,-53.08],[-74.71,-52.75],[-74.39,-52.92]]],[[[-74.57,-48.59],[-74.92,-48.63],[-75.25,-48.03],[-74.83,-47.85],[-74.85,-48.02],[-74.62,-48.34],[-74.57,-48.59]]],[[[-72.92,-53.48],[-72.88,-53.58],[-72.48,-53.59],[-72.21,-53.81],[-72.41,-54],[-72.87,-54.13],[-72.96,-54.07],[-72.76,-53.86],[-73.04,-53.83],[-73.08,-54],[-73.21,-53.99],[-73.3,-53.94],[-73.31,-53.73],[-73.47,-53.74],[-73.64,-53.57],[-73.85,-53.55],[-73.69,-53.43],[-73.45,-53.41],[-73.1,-53.51],[-73.05,-53.39],[-72.92,-53.48]]],[[[-74.82,-51.63],[-74.78,-51.82],[-74.54,-51.97],[-74.69,-52.28],[-74.85,-52.27],[-75.11,-51.79],[-74.82,-51.63]]],[[[-69.7,-54.92],[-68.9,-55.02],[-68.46,-54.96],[-68.4,-55.04],[-68.61,-55.16],[-68.28,-55.26],[-68.33,-55.33],[-68.09,-55.48],[-68.05,-55.64],[-68.34,-55.51],[-68.87,-55.45],[-68.93,-55.37],[-68.89,-55.24],[-69.19,-55.17],[-69.3,-55.17],[-69.36,-55.3],[-69.18,-55.47],[-69.41,-55.44],[-69.65,-55.32],[-69.66,-55.23],[-69.98,-55.15],[-69.88,-54.88],[-69.7,-54.92]]],[[[-71.39,-54.03],[-71.02,-54.11],[-71,-54.25],[-71.14,-54.37],[-71.47,-54.23],[-71.95,-54.3],[-71.97,-54.21],[-72.21,-54.05],[-72,-53.88],[-71.39,-54.03]]],[[[-73.74,-44.39],[-73.98,-44.49],[-74,-44.59],[-73.83,-44.84],[-73.73,-45.12],[-73.75,-45.27],[-73.85,-45.34],[-74.1,-45.33],[-74.09,-45.2],[-74.62,-44.65],[-74.48,-44.58],[-74.5,-44.47],[-74.1,-44.39],[-74.08,-44.19],[-73.99,-44.14],[-73.7,-44.27],[-73.74,-44.39]]],[[[-72.99,-44.78],[-73.23,-44.86],[-73.4,-44.77],[-73.45,-44.64],[-73.28,-44.49],[-73.26,-44.35],[-72.78,-44.51],[-72.99,-44.78]]],[[[-75.04,-44.89],[-75.14,-44.82],[-75.08,-44.8],[-75.04,-44.89]]],[[[-75.3,-50.68],[-75.33,-50.77],[-75.44,-50.74],[-75.43,-50.48],[-75.12,-50.51],[-75.29,-50.6],[-75.3,-50.68]]],[[[-75.11,-48.84],[-75.39,-49.16],[-75.51,-49.23],[-75.64,-49.2],[-75.49,-49.08],[-75.64,-48.94],[-75.58,-48.86],[-75.12,-48.77],[-75.11,-48.84]]],[[[-75.11,-47.84],[-75.26,-47.76],[-75.09,-47.69],[-74.93,-47.72],[-75.11,-47.84]]],[[[-74.67,-43.61],[-74.84,-43.57],[-74.75,-43.54],[-74.67,-43.61]]],[[[-73.63,-44.82],[-73.82,-44.65],[-73.78,-44.56],[-73.64,-44.61],[-73.63,-44.82]]],[[[-74.56,-51.28],[-74.62,-51.4],[-75.05,-51.4],[-75.29,-51.63],[-75.15,-51.28],[-75.04,-51.32],[-74.61,-51.21],[-74.56,-51.28]]],[[[-75.05,-50.3],[-75.25,-50.38],[-75.45,-50.34],[-75.33,-50.01],[-74.88,-50.11],[-74.84,-50.2],[-75.05,-50.3]]],[[[-73.81,-43.83],[-73.79,-43.88],[-73.96,-43.92],[-74.14,-43.87],[-74.14,-43.82],[-73.81,-43.83]]],[[[-74.14,-51.93],[-74.34,-51.9],[-74.48,-51.73],[-74.13,-51.87],[-74.14,-51.93]]],[[[-74.31,-45.69],[-74.47,-45.76],[-74.68,-45.74],[-74.69,-45.66],[-74.49,-45.43],[-74.5,-45.29],[-74.31,-45.17],[-74.32,-45.46],[-74.23,-45.61],[-74.31,-45.69]]],[[[-67.58,-55.89],[-67.85,-55.84],[-67.52,-55.83],[-67.58,-55.89]]],[[[-66.47,-55.23],[-66.64,-55.23],[-66.52,-55.17],[-66.44,-55.19],[-66.47,-55.23]]],[[[-70.99,-54.87],[-70.8,-54.97],[-70.42,-54.91],[-70.3,-55.11],[-70.48,-55.18],[-70.6,-55.08],[-70.94,-55.06],[-71.2,-54.89],[-71.44,-54.89],[-71.37,-54.83],[-70.99,-54.87]]],[[[-67.29,-55.78],[-67.56,-55.71],[-67.37,-55.59],[-67.29,-55.78]]]]}},{"type":"Feature","properties":{"ADMIN":"Uruguay"},"geometry":{"type":"MultiPolygon","coordinates":[[[[-53.37,-33.74],[-53.79,-34.38],[-54.17,-34.67],[-54.9,-34.93],[-55.67,-34.78],[-56.25,-34.9],[-56.86,-34.68],[-57.17,-34.45],[-57.87,-34.45],[-58.4,-33.91],[-58.44,-33.72],[-58.36,-33.18],[-58.09,-32.97],[-58.2,-32.47],[-58.12,-32.25],[-58.19,-31.92],[-57.99,-31.62],[-58.05,-31.49],[-57.81,-30.86],[-57.87,-30.59],[-57.65,-30.23],[-57.21,-30.28],[-57.12,-30.14],[-56.83,-30.11],[-56.04,-30.78],[-56,-31.08],[-55.81,-31.04],[-55.6,-30.85],[-55.17,-31.28],[-54.59,-31.49],[-54.22,-31.86],[-53.76,-32.06],[-53.6,-32.4],[-53.13,-32.74],[-53.53,-33.17],[-53.53,-33.66],[-53.37,-33.74]]]]}},{"type":"Feature","properties":{"ADMIN":"Brazil"},"geometry":{"type":"MultiPolygon","coordinates":[[[[-66.88,1.22],[-66.35,0.77],[-66.06,0.79],[-65.68,0.98],[-65.52,0.84],[-65.56,0.69],[-65.47,0.69],[-65.1,1.11],[-64.21,1.53],[-64.01,1.93],[-63.43,2.16],[-63.39,2.41],[-64.05,2.5],[-64.01,2.67],[-64.22,3.2],[-64.22,3.59],[-64.67,4.01],[-64.79,4.28],[-64.58,4.14],[-64.19,4.13],[-64.02,3.93],[-63.34,3.94],[-62.97,3.59],[-62.86,3.59],[-62.76,3.67],[-62.71,4.02],[-62.41,4.16],[-62.15,4.1],[-61.82,4.2],[-61.55,4.29],[-61.28,4.52],[-61,4.54],[-60.63,4.89],[-60.64,5.08],[-60.74,5.2],[-60.65,5.22],[-60.14,5.24],[-59.99,5.08],[-60.03,4.74],[-60.15,4.53],[-59.7,4.38],[-59.74,4.23],[-59.55,3.93],[-59.68,3.7],[-59.85,3.59],[-59.83,3.35],[-59.97,2.99],[-59.99,2.69],[-59.89,2.36],[-59.76,2.27],[-59.76,1.9],[-59.67,1.75],[-59.23,1.38],[-58.86,1.2],[-58.51,1.28],[-58.51,1.44],[-58.34,1.59],[-58.03,1.52],[-57.98,1.65],[-57.59,1.7],[-57.37,1.94],[-57.12,2.01],[-56.84,1.88],[-56.48,1.94],[-55.96,1.86],[-55.92,2.04],[-56.14,2.26],[-55.96,2.52],[-55.73,2.41],[-55.39,2.44],[-54.98,2.6],[-54.66,2.33],[-54.13,2.12],[-53.77,2.35],[-53.51,2.25],[-53.33,2.34],[-53.23,2.2],[-52.96,2.18],[-52.65,2.43],[-52.33,3.18],[-51.65,4.06],[-51.55,4.31],[-51.46,4.31],[-51.22,4.09],[-50.99,3.08],[-50.68,2.21],[-50.71,2.13],[-50.61,2.1],[-50.46,1.83],[-49.96,1.66],[-49.9,1.16],[-50.29,0.84],[-50.76,0.22],[-51.28,-0.09],[-51.4,-0.39],[-51.7,-0.76],[-51.72,-1.02],[-51.92,-1.18],[-51.98,-1.37],[-52.23,-1.36],[-52.66,-1.55],[-52.31,-1.56],[-52.2,-1.64],[-51.95,-1.59],[-50.89,-0.94],[-50.84,-1.04],[-50.92,-1.12],[-50.69,-1.76],[-50.4,-2.02],[-50,-1.83],[-49.72,-1.93],[-49.31,-1.73],[-49.64,-2.66],[-49.46,-2.5],[-49.21,-1.92],[-48.99,-1.83],[-48.71,-1.49],[-48.46,-1.61],[-48.35,-1.48],[-48.47,-1.39],[-48.45,-1.15],[-48.12,-0.74],[-47.96,-0.77],[-47.81,-0.66],[-47.69,-0.72],[-47.56,-0.67],[-47.42,-0.77],[-47.44,-0.65],[-47.27,-0.65],[-47.13,-0.75],[-46.81,-0.78],[-46.62,-0.97],[-46.22,-1.03],[-46.21,-1.1],[-46.04,-1.1],[-45.64,-1.35],[-45.46,-1.36],[-45.33,-1.72],[-45.08,-1.47],[-44.72,-1.73],[-44.78,-1.8],[-44.65,-1.75],[-44.54,-2.05],[-44.76,-2.27],[-44.66,-2.37],[-44.44,-2.17],[-44.38,-2.37],[-44.52,-2.41],[-44.59,-2.57],[-44.72,-3.2],[-44.44,-2.94],[-44.23,-2.47],[-44.11,-2.49],[-44.19,-2.81],[-43.93,-2.58],[-43.46,-2.5],[-43.38,-2.38],[-42.94,-2.47],[-42.25,-2.79],[-41.88,-2.75],[-41.48,-2.92],[-40.47,-2.8],[-39.96,-2.86],[-38.48,-3.72],[-38.05,-4.22],[-37.63,-4.59],[-37.3,-4.71],[-37.17,-4.91],[-36.59,-5.1],[-35.98,-5.05],[-35.55,-5.13],[-35.39,-5.25],[-35.24,-5.57],[-34.81,-7.29],[-34.88,-7.75],[-34.83,-7.97],[-34.97,-8.41],[-35.16,-8.93],[-35.6,-9.54],[-35.76,-9.7],[-35.89,-9.69],[-35.89,-9.85],[-36.4,-10.48],[-36.94,-10.82],[-37.09,-11.05],[-37.18,-11.07],[-37.18,-11.19],[-37.36,-11.4],[-37.32,-11.22],[-37.36,-11.25],[-37.69,-12.1],[-38.24,-12.84],[-38.5,-12.96],[-38.52,-12.76],[-38.69,-12.62],[-38.85,-12.79],[-38.76,-12.91],[-39.09,-13.59],[-38.99,-13.62],[-39.05,-14.04],[-39.01,-14.1],[-38.94,-14.03],[-39.06,-14.65],[-38.88,-15.86],[-39.2,-17.18],[-39.15,-17.7],[-39.49,-17.99],[-39.65,-18.25],[-39.74,-18.64],[-39.7,-19.28],[-39.78,-19.57],[-40,-19.74],[-40.4,-20.57],[-40.79,-20.91],[-40.95,-21.24],[-41.05,-21.51],[-41,-22],[-41.71,-22.31],[-41.98,-22.58],[-41.94,-22.79],[-42.04,-22.95],[-42.96,-22.97],[-43.08,-22.9],[-43.07,-22.77],[-43.15,-22.73],[-43.24,-22.8],[-43.22,-22.99],[-43.9,-23.1],[-43.97,-23.06],[-43.68,-23.01],[-43.87,-22.91],[-44.64,-23.06],[-44.67,-23.21],[-44.57,-23.27],[-44.95,-23.38],[-45.33,-23.6],[-45.46,-23.8],[-45.97,-23.8],[-46.87,-24.24],[-47.14,-24.49],[-47.99,-25.04],[-47.91,-25.07],[-47.93,-25.17],[-48.2,-25.42],[-48.19,-25.31],[-48.4,-25.27],[-48.48,-25.44],[-48.73,-25.37],[-48.69,-25.49],[-48.4,-25.6],[-48.55,-25.82],[-48.67,-25.84],[-48.58,-25.94],[-48.62,-26.18],[-48.75,-26.27],[-48.65,-26.41],[-48.68,-26.7],[-48.55,-27.2],[-48.64,-27.56],[-48.62,-28.08],[-48.8,-28.58],[-49.27,-28.87],[-49.75,-29.36],[-50.03,-29.8],[-50.3,-30.43],[-50.92,-31.26],[-52.04,-32.11],[-52.06,-31.83],[-51.89,-31.87],[-51.68,-31.77],[-51.27,-31.48],[-51.17,-31.34],[-51.16,-31.12],[-50.98,-31.09],[-50.94,-30.9],[-50.69,-30.7],[-50.72,-30.43],[-50.58,-30.44],[-50.56,-30.25],[-51.02,-30.37],[-51.04,-30.26],[-51.18,-30.21],[-51.3,-30.03],[-51.28,-30.24],[-51.16,-30.36],[-51.29,-30.59],[-51.28,-30.75],[-51.36,-30.67],[-51.51,-31.1],[-51.97,-31.38],[-52.19,-31.89],[-52.13,-32.17],[-52.34,-32.44],[-52.65,-33.14],[-53.37,-33.74],[-53.53,-33.66],[-53.53,-33.17],[-53.13,-32.74],[-53.6,-32.4],[-53.76,-32.06],[-54.22,-31.86],[-54.59,-31.49],[-55.17,-31.28],[-55.6,-30.85],[-55.81,-31.04],[-56,-31.08],[-56.04,-30.78],[-56.83,-30.11],[-57.12,-30.14],[-57.21,-30.28],[-57.55,-30.26],[-57.61,-30.19],[-56.94,-29.59],[-55.89,-28.37],[-55.69,-28.38],[-55.73,-28.2],[-55.1,-27.87],[-54.83,-27.55],[-54.33,-27.42],[-54.16,-27.25],[-53.84,-27.12],[-53.72,-26.88],[-53.67,-26.23],[-53.89,-25.67],[-54.01,-25.58],[-54.15,-25.52],[-54.44,-25.63],[-54.62,-25.58],[-54.44,-25.12],[-54.28,-24.31],[-54.32,-24.13],[-54.24,-24.05],[-54.63,-23.81],[-55.19,-24.02],[-55.42,-23.95],[-55.65,-22.89],[-55.62,-22.67],[-55.8,-22.35],[-56.25,-22.26],[-56.45,-22.08],[-56.63,-22.23],[-56.94,-22.27],[-57.72,-22.1],[-57.88,-22.14],[-57.99,-22.05],[-57.83,-21],[-58.16,-20.16],[-57.86,-19.98],[-58.13,-19.74],[-57.8,-19.08],[-57.72,-19.04],[-57.78,-18.91],[-57.5,-18.21],[-57.83,-17.51],[-57.99,-17.51],[-58.4,-17.23],[-58.48,-16.7],[-58.35,-16.49],[-58.35,-16.28],[-60.18,-16.27],[-60.24,-15.48],[-60.58,-15.1],[-60.27,-15.09],[-60.3,-14.62],[-60.47,-14.18],[-60.4,-14.02],[-60.51,-13.79],[-61.08,-13.49],[-61.79,-13.53],[-62.12,-13.16],[-62.77,-13],[-63.02,-12.81],[-63.07,-12.67],[-63.35,-12.68],[-63.69,-12.48],[-63.94,-12.53],[-64.42,-12.44],[-64.51,-12.25],[-64.99,-11.98],[-65.09,-11.74],[-65.19,-11.75],[-65.39,-11.25],[-65.32,-11.02],[-65.45,-10.51],[-65.3,-10.15],[-65.4,-9.71],[-65.56,-9.8],[-66.58,-9.9],[-67.42,-10.39],[-67.72,-10.68],[-68.07,-10.7],[-68.31,-10.98],[-68.62,-11.11],[-69.23,-10.96],[-69.96,-10.93],[-70.34,-11.07],[-70.53,-10.95],[-70.64,-11.01],[-70.64,-9.82],[-70.54,-9.44],[-71.24,-9.97],[-72.18,-10],[-72.17,-9.84],[-72.38,-9.51],[-73.21,-9.41],[-72.97,-9.12],[-72.97,-8.99],[-73.3,-8.65],[-73.36,-8.48],[-73.55,-8.35],[-73.78,-7.94],[-73.72,-7.78],[-74,-7.56],[-73.96,-7.38],[-73.72,-7.31],[-73.8,-7.08],[-73.76,-6.91],[-73.14,-6.47],[-73.24,-6.1],[-72.98,-5.63],[-72.89,-5.12],[-71.84,-4.5],[-70.97,-4.35],[-70.8,-4.17],[-70.4,-4.15],[-70.24,-4.3],[-69.97,-4.3],[-69.4,-1.19],[-69.61,-0.76],[-69.63,-0.51],[-70.07,-0.14],[-70.05,0.58],[-69.47,0.73],[-69.28,0.63],[-69.15,0.66],[-69.16,0.86],[-69.31,1.05],[-69.85,1.06],[-69.85,1.71],[-69.54,1.77],[-68.18,1.72],[-68.26,1.85],[-68.19,1.99],[-67.94,1.75],[-67.56,2.07],[-67.4,2.12],[-67.12,1.7],[-67.08,1.19],[-66.88,1.22]]],[[[-49.63,-0.23],[-49.12,-0.16],[-48.39,-0.3],[-48.5,-0.66],[-48.57,-0.68],[-48.57,-0.89],[-48.84,-1.23],[-48.83,-1.39],[-49.04,-1.51],[-49.17,-1.41],[-49.23,-1.6],[-49.51,-1.51],[-49.59,-1.71],[-49.81,-1.79],[-50.07,-1.7],[-50.51,-1.79],[-50.76,-1.24],[-50.73,-1.13],[-50.58,-1.1],[-50.71,-1.08],[-50.8,-0.91],[-50.65,-0.27],[-50.25,-0.12],[-49.63,-0.23]]],[[[-44.13,-23.14],[-44.36,-23.17],[-44.24,-23.07],[-44.13,-23.14]]],[[[-48.58,-26.4],[-48.67,-26.29],[-48.54,-26.17],[-48.5,-26.22],[-48.58,-26.4]]],[[[-45.26,-23.89],[-45.26,-23.94],[-45.45,-23.9],[-45.3,-23.73],[-45.26,-23.89]]],[[[-44.5,-2.94],[-44.6,-3.04],[-44.57,-2.78],[-44.48,-2.72],[-44.5,-2.94]]],[[[-38.74,-13.1],[-38.79,-13.06],[-38.67,-12.88],[-38.6,-12.99],[-38.74,-13.1]]],[[[-38.9,-13.47],[-38.98,-13.52],[-39.02,-13.45],[-38.91,-13.4],[-38.9,-13.47]]],[[[-44.88,-1.32],[-45.02,-1.37],[-44.98,-1.27],[-44.88,-1.32]]],[[[-49.74,0.27],[-49.7,0.22],[-49.92,-0.02],[-50.34,0.04],[-50.27,0.23],[-49.74,0.27]]],[[[-50.3,1.94],[-50.46,1.91],[-50.49,2.13],[-50.34,2.14],[-50.3,1.94]]],[[[-50.65,-0.13],[-50.93,-0.33],[-51.04,-0.23],[-51,-0.11],[-50.84,-0.05],[-50.67,-0.06],[-50.65,-0.13]]],[[[-49.44,-0.11],[-49.83,-0.09],[-49.5,0.08],[-49.37,0],[-49.44,-0.11]]],[[[-50.43,0.14],[-50.44,-0.01],[-50.62,0.05],[-50.61,0.2],[-50.45,0.33],[-50.37,0.59],[-50.33,0.26],[-50.43,0.14]]],[[[-50.15,0.39],[-50.26,0.36],[-50.28,0.52],[-50.06,0.64],[-50.04,0.52],[-50.15,0.39]]],[[[-51.83,-1.43],[-51.94,-1.45],[-51.68,-1.09],[-51.68,-0.86],[-51.55,-0.65],[-51.25,-0.54],[-51.16,-0.67],[-51.28,-1.02],[-51.83,-1.43]]],[[[-48.49,-27.77],[-48.55,-27.81],[-48.54,-27.57],[-48.41,-27.4],[-48.49,-27.77]]]]}},{"type":"Feature","properties":{"ADMIN":"Paraguay"},"geometry":{"type":"MultiPolygon","coordinates":[[[[-58.16,-20.16],[-57.83,-21],[-57.95,-21.49],[-57.96,-22.11],[-56.94,-22.27],[-56.63,-22.23],[-56.45,-22.08],[-56.25,-22.26],[-55.85,-22.31],[-55.62,-22.67],[-55.65,-22.89],[-55.42,-23.95],[-55.19,-24.02],[-54.63,-23.81],[-54.24,-24.05],[-54.32,-24.13],[-54.28,-24.31],[-54.44,-25.12],[-54.61,-25.43],[-54.63,-26.01],[-54.76,-26.53],[-55.14,-26.93],[-55.43,-27.01],[-55.71,-27.41],[-56.16,-27.32],[-56.44,-27.55],[-56.6,-27.47],[-57.11,-27.47],[-58.17,-27.27],[-58.6,-27.31],[-58.62,-27.13],[-58.19,-26.63],[-58.2,-26.38],[-58.11,-26.18],[-57.89,-26.01],[-57.75,-25.7],[-57.57,-25.53],[-57.64,-25.33],[-57.96,-25.05],[-58.37,-24.96],[-59.19,-24.56],[-59.89,-24.09],[-61.03,-23.76],[-61.21,-23.56],[-61.8,-23.18],[-62.21,-22.61],[-62.65,-22.23],[-62.28,-21.07],[-62.28,-20.56],[-61.92,-20.06],[-61.76,-19.65],[-60.01,-19.3],[-59.09,-19.29],[-58.18,-19.82],[-58.16,-20.16]]]]}},{"type":"Feature","properties":{"ADMIN":"Bolivia"},"geometry":{"type":"MultiPolygon","coordinates":[[[[-69.51,-17.51],[-69.62,-17.2],[-69.02,-16.64],[-69.03,-16.48],[-68.84,-16.34],[-69.22,-16.15],[-69.42,-15.64],[-69.17,-15.24],[-69.37,-14.96],[-69.36,-14.8],[-68.87,-14.17],[-69.07,-13.68],[-68.98,-13.5],[-68.98,-12.88],[-68.76,-12.69],[-68.69,-12.5],[-69.58,-10.95],[-68.85,-11.01],[-68.73,-11.12],[-68.62,-11.11],[-68.31,-10.98],[-68.07,-10.7],[-67.72,-10.68],[-67.42,-10.39],[-66.58,-9.9],[-65.56,-9.8],[-65.4,-9.71],[-65.3,-10.15],[-65.45,-10.51],[-65.32,-11.02],[-65.39,-11.25],[-65.19,-11.75],[-65.09,-11.74],[-64.99,-11.98],[-64.51,-12.25],[-64.42,-12.44],[-63.94,-12.53],[-63.69,-12.48],[-63.35,-12.68],[-63.07,-12.67],[-63.02,-12.81],[-62.77,-13],[-62.12,-13.16],[-61.79,-13.53],[-61.08,-13.49],[-60.51,-13.79],[-60.4,-14.02],[-60.47,-14.18],[-60.3,-14.62],[-60.27,-15.09],[-60.58,-15.1],[-60.24,-15.48],[-60.18,-16.27],[-58.35,-16.28],[-58.35,-16.49],[-58.48,-16.7],[-58.4,-17.23],[-57.99,-17.51],[-57.83,-17.51],[-57.5,-18.21],[-57.78,-18.91],[-57.72,-19.04],[-57.8,-19.08],[-58.13,-19.74],[-57.86,-19.98],[-58.09,-20.15],[-58.16,-20.16],[-58.18,-19.82],[-59.09,-19.29],[-60.01,-19.3],[-61.76,-19.65],[-61.92,-20.06],[-62.28,-20.56],[-62.28,-21.07],[-62.65,-22.23],[-62.84,-22],[-63.92,-22.03],[-64.33,-22.83],[-64.61,-22.23],[-64.99,-22.11],[-65.77,-22.1],[-66.22,-21.8],[-66.37,-22.11],[-66.71,-22.22],[-66.8,-22.41],[-67.03,-22.55],[-67.19,-22.82],[-67.71,-22.89],[-67.88,-22.82],[-67.88,-22.49],[-68.19,-21.62],[-68.2,-21.3],[-68.44,-20.95],[-68.56,-20.9],[-68.56,-20.72],[-68.48,-20.63],[-68.76,-20.42],[-68.69,-20.31],[-68.76,-20.09],[-68.56,-19.97],[-68.7,-19.72],[-68.47,-19.41],[-68.97,-18.97],[-69.15,-18.14],[-69.09,-18.05],[-69.31,-17.94],[-69.51,-17.51]]]]}},{"type":"Feature","properties":{"ADMIN":"Peru"},"geometry":{"type":"MultiPolygon","coordinates":[[[[-69.97,-4.24],[-70.05,-4.33],[-70.24,-4.3],[-70.4,-4.15],[-70.8,-4.17],[-70.97,-4.35],[-71.84,-4.5],[-72.89,-5.12],[-72.98,-5.63],[-73.24,-6.1],[-73.14,-6.47],[-73.76,-6.91],[-73.8,-7.08],[-73.72,-7.31],[-73.96,-7.38],[-74,-7.56],[-73.72,-7.78],[-73.78,-7.94],[-73.55,-8.35],[-73.36,-8.48],[-73.3,-8.65],[-72.97,-8.99],[-72.97,-9.12],[-73.21,-9.41],[-72.38,-9.51],[-72.17,-9.84],[-72.18,-10],[-71.24,-9.97],[-70.54,-9.44],[-70.64,-9.82],[-70.64,-11.01],[-70.53,-10.95],[-70.29,-11.06],[-69.96,-10.93],[-69.58,-10.95],[-68.69,-12.5],[-68.76,-12.69],[-68.98,-12.88],[-68.98,-13.5],[-69.07,-13.68],[-68.87,-14.17],[-69.36,-14.8],[-69.37,-14.96],[-69.17,-15.24],[-69.42,-15.64],[-69.22,-16.15],[-68.84,-16.34],[-69.03,-16.48],[-69.02,-16.64],[-69.62,-17.2],[-69.51,-17.51],[-69.85,-17.7],[-69.8,-17.99],[-69.93,-18.21],[-70.42,-18.35],[-71.34,-17.68],[-71.4,-17.42],[-71.53,-17.29],[-72.11,-17],[-72.47,-16.71],[-73.73,-16.2],[-75.1,-15.41],[-75.53,-14.9],[-75.93,-14.63],[-76.29,-14.13],[-76.38,-13.86],[-76.26,-13.8],[-76.18,-13.52],[-76.22,-13.37],[-76.83,-12.35],[-77.15,-12.06],[-77.22,-11.66],[-77.63,-11.29],[-77.74,-10.84],[-78.19,-10.09],[-78.76,-8.62],[-79.01,-8.21],[-79.38,-7.84],[-79.62,-7.3],[-79.99,-6.77],[-81.14,-6.06],[-81.16,-5.88],[-81.09,-5.81],[-80.93,-5.84],[-80.88,-5.64],[-81.17,-5.17],[-81.11,-5.03],[-81.34,-4.67],[-81.23,-4.23],[-80.8,-3.73],[-80.32,-3.39],[-80.18,-3.88],[-80.3,-4.01],[-80.49,-4.01],[-80.49,-4.17],[-80.35,-4.21],[-80.48,-4.43],[-80.38,-4.46],[-80.14,-4.3],[-79.8,-4.48],[-79.64,-4.45],[-79.52,-4.54],[-79.33,-4.93],[-79.03,-4.97],[-78.92,-4.86],[-78.91,-4.71],[-78.69,-4.56],[-78.68,-4.33],[-78.42,-3.78],[-78.35,-3.4],[-78.16,-3.47],[-78.18,-3.35],[-77.86,-2.98],[-76.68,-2.56],[-76.09,-2.13],[-75.57,-1.53],[-75.41,-0.92],[-75.25,-0.95],[-75.26,-0.59],[-75.63,-0.12],[-75.34,-0.14],[-75.22,-0.04],[-74.8,-0.2],[-74.62,-0.37],[-74.42,-0.58],[-74.25,-0.97],[-73.66,-1.25],[-73.52,-1.45],[-73.5,-1.69],[-73.2,-1.83],[-73.15,-2.28],[-72.94,-2.39],[-72.22,-2.4],[-71.75,-2.15],[-71.4,-2.33],[-70.97,-2.21],[-70.1,-2.66],[-70.07,-2.75],[-70.74,-3.78],[-70.53,-3.87],[-70.34,-3.81],[-69.97,-4.24]]]]}}]}